  m_SelectedEditorRenderState: 3
  m_MinimumChartSize: 4
  m_AutoUVMaxDistance: 0.5
  m_AutoUVMaxAngle: 89
  m_LightmapParameters: {fileID: 0}
  m_SortingLayerID: 0
  m_SortingOrder: 0
--- !u!33 &33085776477929718
MeshFilter:
  m_ObjectHideFlags: 1
  m_PrefabParentObject: {fileID: 0}
  m_PrefabInternal: {fileID: 100100000}
  m_GameObject: {fileID: 1748939958195964}
  m_Mesh: {fileID: 4300000, guid: fef5820377bbfc14ab27358f02a4bc5c, type: 3}
--- !u!33 &33364173651400482
MeshFilter:
  m_ObjectHideFlags: 1
  m_PrefabParentObject: {fileID: 0}
  m_PrefabInternal: {fileID: 100100000}
  m_GameObject: {fileID: 1293046761855360}
  m_Mesh: {fileID: 4300002, guid: 8a8e1153887e3ee49ab4c663e9ed619b, type: 3}
--- !u!33 &33376285848650070
MeshFilter:
  m_ObjectHideFlags: 1
  m_PrefabParentObject: {fileID: 0}
  m_PrefabInternal: {fileID: 100100000}
  m_GameObject: {fileID: 1451630134294540}
  m_Mesh: {fileID: 4300002, guid: fef5820377bbfc14ab27358f02a4bc5c, type: 3}
--- !u!33 &33647661756197954
MeshFilter:
  m_ObjectHideFlags: 1
  m_PrefabParentObject: {fileID: 0}
  m_PrefabInternal: {fileID: 100100000}
  m_GameObject: {fileID: 1129158477792620}
  m_Mesh: {fileID: 4300004, guid: fef5820377bbfc14ab27358f02a4bc5c, type: 3}
--- !u!114 &114332756991953074
MonoBehaviour:
  m_ObjectHideFlags: 1
  m_PrefabParentObject: {fileID: 0}
  m_PrefabInternal: {fileID: 100100000}
  m_GameObject: {fileID: 1633160029386124}
  m_Enabled: 1
  m_EditorHideFlags: 0
  m_Script: {fileID: 11500000, guid: a4f64a29bf435d449a300111aaeb58f8, type: 3}
  m_Name: 
  m_EditorClassIdentifier: 
  SemiMajorAxis: 0.2
  SemiMajorAxisReal: 2.8767117e+9
  Eccentricity: 0
  EccentricityReal: 0.04439848
  ArgumentOfPerigee: 0
  Inclination: 0
  InclinationReal: 0.01347816
  RightAscensionOfAscendingNode: 0
  MeanAnomaly: 0
  Period: 30799.62
  PeriodReal: 30799.62
  Plane: 0
  TrueAnomaly: 0
  Epoch: 2451545
  Reality: 0
  RealitySemiMajorAxisScale: 4.2314006e-11
  Speed: 100
  SpeedMultiplier: 0.1
  TransitionSpeedMultiplier: 1
  MaxIterations: 20
--- !u!114 &114410992551941020
MonoBehaviour:
  m_ObjectHideFlags: 1
  m_PrefabParentObject: {fileID: 0}
  m_PrefabInternal: {fileID: 100100000}
  m_GameObject: {fileID: 1451630134294540}
  m_Enabled: 1
  m_EditorHideFlags: 0
  m_Script: {fileID: 11500000, guid: 6d14ec0567e8de744b78308336c5fa34, type: 3}
  m_Name: 
  m_EditorClassIdentifier: 
  Sun: {fileID: 0}
--- !u!114 &114457289353729678
MonoBehaviour:
  m_ObjectHideFlags: 1
  m_PrefabParentObject: {fileID: 0}
  m_PrefabInternal: {fileID: 100100000}
  m_GameObject: {fileID: 1633160029386124}
  m_Enabled: 1
  m_EditorHideFlags: 0
  m_Script: {fileID: 11500000, guid: 6f892c269d3682144bd442e2a3391add, type: 3}
  m_Name: 
  m_EditorClassIdentifier: 
--- !u!114 &114465653967183746
MonoBehaviour:
  m_ObjectHideFlags: 1
  m_PrefabParentObject: {fileID: 0}
  m_PrefabInternal: {fileID: 100100000}
  m_GameObject: {fileID: 1386430505184884}
  m_Enabled: 1
  m_EditorHideFlags: 0
  m_Script: {fileID: 11500000, guid: c8725130c053f7541b9a408e493e9f91, type: 3}
  m_Name: 
  m_EditorClassIdentifier: 
  VoiceCommands: []
  pointOfInterest: {fileID: 0}
--- !u!114 &114513990520623638
MonoBehaviour:
  m_ObjectHideFlags: 1
  m_PrefabParentObject: {fileID: 0}
  m_PrefabInternal: {fileID: 100100000}
  m_GameObject: {fileID: 1129158477792620}
  m_Enabled: 1
  m_EditorHideFlags: 0
  m_Script: {fileID: 11500000, guid: fdccc9cc3cb310b4392cc4c57c74c3c8, type: 3}
  m_Name: 
  m_EditorClassIdentifier: 
  rotationOffset: {x: 0, y: -90, z: 0}
  forceToWorldUp: 0
  forceCameraUp: 0
--- !u!114 &114532296998333452
MonoBehaviour:
  m_ObjectHideFlags: 1
  m_PrefabParentObject: {fileID: 0}
  m_PrefabInternal: {fileID: 100100000}
  m_GameObject: {fileID: 1748939958195964}
  m_Enabled: 1
  m_EditorHideFlags: 0
  m_Script: {fileID: 11500000, guid: 6d14ec0567e8de744b78308336c5fa34, type: 3}
  m_Name: 
  m_EditorClassIdentifier: 
  Sun: {fileID: 0}
--- !u!114 &114628070535049262
MonoBehaviour:
  m_ObjectHideFlags: 1
  m_PrefabParentObject: {fileID: 0}
  m_PrefabInternal: {fileID: 100100000}
  m_GameObject: {fileID: 1352360972742316}
  m_Enabled: 1
  m_EditorHideFlags: 0
  m_Script: {fileID: 11500000, guid: 11e705904898e9e41b49ee058ee58850, type: 3}
  m_Name: 
  m_EditorClassIdentifier: 
  orbitMaterial: {fileID: 2100000, guid: 3f7446375ec57ca4abdd9781bcb5d89d, type: 2}
  orbitStepCount: 160
  pointOfInterestMarker: {fileID: 0}
  pointOfInterestAngle: 32
  snapPointOfInterestToPosition: 1
--- !u!114 &114667052452984254
MonoBehaviour:
  m_ObjectHideFlags: 1
  m_PrefabParentObject: {fileID: 0}
  m_PrefabInternal: {fileID: 100100000}
  m_GameObject: {fileID: 1293046761855360}
  m_Enabled: 1
  m_EditorHideFlags: 0
  m_Script: {fileID: 11500000, guid: 81f075d41bf2e0849b35226d49caa003, type: 3}
  m_Name: 
  m_EditorClassIdentifier: 
  Sun: {fileID: 0}
--- !u!114 &114840105605245468
MonoBehaviour:
  m_ObjectHideFlags: 1
  m_PrefabParentObject: {fileID: 0}
  m_PrefabInternal: {fileID: 100100000}
  m_GameObject: {fileID: 1633160029386124}
  m_Enabled: 1
  m_EditorHideFlags: 0
  m_Script: {fileID: 11500000, guid: de2906fc648115c4987eaf5c8d397f1f, type: 3}
  m_Name: 
  m_EditorClassIdentifier: 
--- !u!114 &114879176847298290
MonoBehaviour:
  m_ObjectHideFlags: 1
  m_PrefabParentObject: {fileID: 0}
  m_PrefabInternal: {fileID: 100100000}
  m_GameObject: {fileID: 1633160029386124}
  m_Enabled: 1
  m_EditorHideFlags: 0
  m_Script: {fileID: 11500000, guid: 4c2eeafa42b689a4aaec9a3be3cfef15, type: 3}
  m_Name: 
  m_EditorClassIdentifier: 
  VoiceCommands: []
  SelectionPOITarget: {fileID: 0}
--- !u!114 &114951078782076786
MonoBehaviour:
  m_ObjectHideFlags: 1
  m_PrefabParentObject: {fileID: 0}
  m_PrefabInternal: {fileID: 100100000}
  m_GameObject: {fileID: 1129158477792620}
  m_Enabled: 1
  m_EditorHideFlags: 0
  m_Script: {fileID: 11500000, guid: 6d14ec0567e8de744b78308336c5fa34, type: 3}
  m_Name: 
  m_EditorClassIdentifier: 
  Sun: {fileID: 0}
--- !u!135 &135891756022966646
SphereCollider:
  m_ObjectHideFlags: 1
  m_PrefabParentObject: {fileID: 0}
  m_PrefabInternal: {fileID: 100100000}
  m_GameObject: {fileID: 1748939958195964}
  m_Material: {fileID: 0}
  m_IsTrigger: 0
  m_Enabled: 1
  serializedVersion: 2
  m_Radius: 0.008565571
  m_Center: {x: -7.1054274e-15, y: -0.000000059604645, z: 0}
--- !u!205 &205853282955321102
LODGroup:
  m_ObjectHideFlags: 1
  m_PrefabParentObject: {fileID: 0}
  m_PrefabInternal: {fileID: 100100000}
  m_GameObject: {fileID: 1633160029386124}
  serializedVersion: 2
  m_LocalReferencePoint: {x: 0.0000000018626451, y: 0.000002173707, z: 0.000017354265}
  m_Size: 0.02806687
  m_FadeMode: 1
  m_AnimateCrossFading: 0
  m_LODs:
  - screenRelativeHeight: 0.027530862
    fadeTransitionWidth: 0
    renderers:
    - renderer: {fileID: 23314187298294852}
    - renderer: {fileID: 23979811472345830}
  - screenRelativeHeight: 0.0009895742
    fadeTransitionWidth: 0
    renderers:
    - renderer: {fileID: 23542268998480730}
  m_Enabled: 1
